[{"OBJECT_NAME":"STARLINK-34952","OBJECT_ID":"2025-175Z","EPOCH":"2026-03-09T14:51:23.690880","MEAN_MOTION":15.05637468,"ECCENTRICITY":0.0002358,"INCLINATION":97.6018,"RA_OF_ASC_NODE":302.6484,"ARG_OF_PERICENTER":68.2368,"MEAN_ANOMALY":291.9109,"EPHEMERIS_TYPE":0,"CLASSIFICATION_TYPE":"U","NORAD_CAT_ID":65197,"ELEMENT_SET_NO":999,"REV_AT_EPOCH":3263,"BSTAR":0.00046386,"MEAN_MOTION_DOT":6.637e-5,"MEAN_MOTION_DDOT":0},{"OBJECT_NAME":"CZ-4B DEB","OBJECT_ID":"2008-053K","EPOCH":"2026-03-03T06:56:31.900704","MEAN_MOTION":15.04681815,"ECCENTRICITY":0.00115476,"INCLINATION":97.843,"RA_OF_ASC_NODE":88.8262,"ARG_OF_PERICENTER":63.9062,"MEAN_ANOMALY":296.3351,"EPHEMERIS_TYPE":0,"CLASSIFICATION_TYPE":"U","NORAD_CAT_ID":36289,"ELEMENT_SET_NO":999,"REV_AT_EPOCH":93214,"BSTAR":0.00025594062,"MEAN_MOTION_DOT":3.541e-5,"MEAN_MOTION_DDOT":0}]
